{"type": "FeatureCollection", "features": [ {"type": "Feature", "properties": {"norad_id": 29919, "name": "FENGYUN 1C DEB", "group": "fengyun-1c-debris", "lat": 49.80210037595494, "lon": -24.399219404817615, "alt_km": 1034.4568798278187, "timestamp": "2025-12-17T10:52:54.625646+00:00", "meta": {"OBJECT_NAME": "FENGYUN 1C DEB", "OBJECT_ID": "1999-025HR", "EPOCH": "2025-12-17T00:28:25.105728", "MEAN_MOTION": 13.85125068, "ECCENTRICITY": 0.01371458, "INCLINATION": 98.4794, "RA_OF_ASC_NODE": 145.0403, "ARG_OF_PERICENTER": 332.0612, "MEAN_ANOMALY": 155.4198, "EPHEMERIS_TYPE": 0, "CLASSIFICATION_TYPE": "U", "NORAD_CAT_ID": 29919, "ELEMENT_SET_NO": 999, "REV_AT_EPOCH": 95594, "BSTAR": 0.00015870099, "MEAN_MOTION_DOT": 1.55e-06, "MEAN_MOTION_DDOT": 0}, "tle": {"line1": "1 29919U 99025HR  25351.01973502  .00000155  00000+0  15870-3 0  9992", "line2": "2 29919  98.4794 145.0403 0137145 332.0612 155.4198 13.85125068955942"}}, "geometry": {"type": "Point", "coordinates": [-24.399219404817615, 49.80210037595494]}}, {"type": "Feature", "properties": {"norad_id": 29920, "name": "FENGYUN 1C DEB", "group": "fengyun-1c-debris", "lat": -39.45705640503958, "lon": -147.43196787352346, "alt_km": 831.6322123193049, "timestamp": "2025-12-17T10:52:54.625656+00:00", "meta": {"OBJECT_NAME": "FENGYUN 1C DEB", "OBJECT_ID": "1999-025HS", "EPOCH": "2025-12-16T02:33:58.015008", "MEAN_MOTION": 14.03673256, "ECCENTRICITY": 0.01252816, "INCLINATION": 98.3914, "RA_OF_ASC_NODE": 204.3465, "ARG_OF_PERICENTER": 271.2778, "MEAN_ANOMALY": 87.4041, "EPHEMERIS_TYPE": 0, "CLASSIFICATION_TYPE": "U", "NORAD_CAT_ID": 29920, "ELEMENT_SET_NO": 999, "REV_AT_EPOCH": 96335, "BSTAR": 0.0011269229, "MEAN_MOTION_DOT": 1.858e-05, "MEAN_MOTION_DDOT": 0}, "tle": {"line1": "1 29920U 99025HS  25350.10692147  .00001858  00000+0  11269-2 0  9994", "line2": "2 29920  98.3914 204.3465 0125281 271.2778  87.4041 14.03673256963352"}}, "geometry": {"type": "Point", "coordinates": [-147.43196787352346, -39.45705640503958]}}, {"type": "Feature", "properties": {"norad_id": 29921, "name": "FENGYUN 1C DEB", "group": "fengyun-1c-debris", "lat": -24.924913110048664, "lon": 173.31211757909793, "alt_km": 904.9744623749939, "timestamp": "2025-12-17T10:52:54.625667+00:00", "meta": {"OBJECT_NAME": "FENGYUN 1C DEB", "OBJECT_ID": "1999-025HT", "EPOCH": "2025-12-16T23:55:39.502272", "MEAN_MOTION": 14.06648287, "ECCENTRICITY": 0.00463548, "INCLINATION": 98.7866, "RA_OF_ASC_NODE": 356.9906, "ARG_OF_PERICENTER": 57.9477, "MEAN_ANOMALY": 356.8822, "EPHEMERIS_TYPE": 0, "CLASSIFICATION_TYPE": "U", "NORAD_CAT_ID": 29921, "ELEMENT_SET_NO": 999, "REV_AT_EPOCH": 96936, "BSTAR": 0.00024884776, "MEAN_MOTION_DOT": 3.74e-06, "MEAN_MOTION_DDOT": 0}, "tle": {"line1": "1 29921U 99025HT  25350.99698498  .00000374  00000+0  24885-3 0  9998", "line2": "2 29921  98.7866 356.9906 0046354  57.9477 356.8822 14.06648287969361"}}, "geometry": {"type": "Point", "coordinates": [173.31211757909793, -24.924913110048664]}}, {"type": "Feature", "properties": {"norad_id": 29922, "name": "FENGYUN 1C DEB", "group": "fengyun-1c-debris", "lat": -34.067730006902366, "lon": -137.36207562873386, "alt_km": 956.0388641085101, "timestamp": "2025-12-17T10:52:54.625677+00:00", "meta": {"OBJECT_NAME": "FENGYUN 1C DEB", "OBJECT_ID": "1999-025HU", "EPOCH": "2025-12-16T16:41:10.553856", "MEAN_MOTION": 13.98581812, "ECCENTRICITY": 0.00929712, "INCLINATION": 99.1351, "RA_OF_ASC_NODE": 48.1294, "ARG_OF_PERICENTER": 356.0811, "MEAN_ANOMALY": 3.9615, "EPHEMERIS_TYPE": 0, "CLASSIFICATION_TYPE": "U", "NORAD_CAT_ID": 29922, "ELEMENT_SET_NO": 999, "REV_AT_EPOCH": 96496, "BSTAR": 5.2491519e-05, "MEAN_MOTION_DOT": 3.3e-07, "MEAN_MOTION_DDOT": 0}, "tle": {"line1": "1 29922U 99025HU  25350.69526104  .00000033  00000+0  52492-4 0  9998", "line2": "2 29922  99.1351  48.1294 0092971 356.0811   3.9615 13.98581812964968"}}, "geometry": {"type": "Point", "coordinates": [-137.36207562873386, -34.067730006902366]}}, {"type": "Feature", "properties": {"norad_id": 29923, "name": "FENGYUN 1C DEB", "group": "fengyun-1c-debris", "lat": -43.56713925638698, "lon": 7.975673662308253, "alt_km": 864.7338536215575, "timestamp": "2025-12-17T10:52:54.625687+00:00", "meta": {"OBJECT_NAME": "FENGYUN 1C DEB", "OBJECT_ID": "1999-025HV", "EPOCH": "2025-12-16T23:30:20.821824", "MEAN_MOTION": 14.13900378, "ECCENTRICITY": 0.00177879, "INCLINATION": 98.688, "RA_OF_ASC_NODE": 359.1522, "ARG_OF_PERICENTER": 157.3972, "MEAN_ANOMALY": 267.0788, "EPHEMERIS_TYPE": 0, "CLASSIFICATION_TYPE": "U", "NORAD_CAT_ID": 29923, "ELEMENT_SET_NO": 999, "REV_AT_EPOCH": 97335, "BSTAR": 0.00043235599, "MEAN_MOTION_DOT": 7.78e-06, "MEAN_MOTION_DDOT": 0}, "tle": {"line1": "1 29923U 99025HV  25350.97940766  .00000778  00000+0  43236-3 0  9995", "line2": "2 29923  98.6880 359.1522 0017787 157.3972 267.0788 14.13900378973358"}}, "geometry": {"type": "Point", "coordinates": [7.975673662308253, -43.56713925638698]}}, {"type": "Feature", "properties": {"norad_id": 29924, "name": "FENGYUN 1C DEB", "group": "fengyun-1c-debris", "lat": -24.810066086815446, "lon": -179.81064285336998, "alt_km": 854.0176137008802, "timestamp": "2025-12-17T10:52:54.625697+00:00", "meta": {"OBJECT_NAME": "FENGYUN 1C DEB", "OBJECT_ID": "1999-025HW", "EPOCH": "2025-12-16T19:25:23.260800", "MEAN_MOTION": 14.08891032, "ECCENTRICITY": 0.00259678, "INCLINATION": 98.734, "RA_OF_ASC_NODE": 3.6404, "ARG_OF_PERICENTER": 245.7359, "MEAN_ANOMALY": 294.3356, "EPHEMERIS_TYPE": 0, "CLASSIFICATION_TYPE": "U", "NORAD_CAT_ID": 29924, "ELEMENT_SET_NO": 999, "REV_AT_EPOCH": 97265, "BSTAR": 8.4144208e-05, "MEAN_MOTION_DOT": 1.03e-06, "MEAN_MOTION_DDOT": 0}, "tle": {"line1": "1 29924U 99025HW  25350.80929700  .00000103  00000+0  84144-4 0  9999", "line2": "2 29924  98.7340   3.6404 0025967 245.7359 294.3356 14.08891032972657"}}, "geometry": {"type": "Point", "coordinates": [-179.81064285336998, -24.810066086815446]}}, {"type": "Feature", "properties": {"norad_id": 29926, "name": "FENGYUN 1C DEB", "group": "fengyun-1c-debris", "lat": 51.84009378607578, "lon": 170.8412877979762, "alt_km": 940.5011818902367, "timestamp": "2025-12-17T10:52:54.625707+00:00", "meta": {"OBJECT_NAME": "FENGYUN 1C DEB", "OBJECT_ID": "1999-025HY", "EPOCH": "2025-12-16T22:38:38.273856", "MEAN_MOTION": 14.33406115, "ECCENTRICITY": 0.02480123, "INCLINATION": 98.2829, "RA_OF_ASC_NODE": 339.6692, "ARG_OF_PERICENTER": 287.6462, "MEAN_ANOMALY": 90.9613, "EPHEMERIS_TYPE": 0, "CLASSIFICATION_TYPE": "U", "NORAD_CAT_ID": 29926, "ELEMENT_SET_NO": 999, "REV_AT_EPOCH": 98641, "BSTAR": 0.00029484123, "MEAN_MOTION_DOT": 1.094e-05, "MEAN_MOTION_DDOT": 0}, "tle": {"line1": "1 29926U 99025HY  25350.94349854  .00001094  00000+0  29484-3 0  9997", "line2": "2 29926  98.2829 339.6692 0248012 287.6462  90.9613 14.33406115986412"}}, "geometry": {"type": "Point", "coordinates": [170.8412877979762, 51.84009378607578]}}, {"type": "Feature", "properties": {"norad_id": 29927, "name": "FENGYUN 1C DEB", "group": "fengyun-1c-debris", "lat": -55.6363422195142, "lon": -177.5601566666927, "alt_km": 643.4693702258855, "timestamp": "2025-12-17T10:52:54.625718+00:00", "meta": {"OBJECT_NAME": "FENGYUN 1C DEB", "OBJECT_ID": "1999-025HZ", "EPOCH": "2025-12-17T00:18:38.098944", "MEAN_MOTION": 14.74726672, "ECCENTRICITY": 0.00178913, "INCLINATION": 99.0843, "RA_OF_ASC_NODE": 15.4785, "ARG_OF_PERICENTER": 197.243, "MEAN_ANOMALY": 222.1706, "EPHEMERIS_TYPE": 0, "CLASSIFICATION_TYPE": "U", "NORAD_CAT_ID": 29927, "ELEMENT_SET_NO": 999, "REV_AT_EPOCH": 98710, "BSTAR": 0.0022862936, "MEAN_MOTION_DOT": 0.00015291, "MEAN_MOTION_DDOT": 0}, "tle": {"line1": "1 29927U 99025HZ  25351.01294096  .00015291  00000+0  22863-2 0  9991", "line2": "2 29927  99.0843  15.4785 0017891 197.2430 222.1706 14.74726672987107"}}, "geometry": {"type": "Point", "coordinates": [-177.5601566666927, -55.6363422195142]}}, {"type": "Feature", "properties": {"norad_id": 29928, "name": "FENGYUN 1C DEB", "group": "fengyun-1c-debris", "lat": -40.34076744330967, "lon": 24.09558776821094, "alt_km": 1010.3938212854291, "timestamp": "2025-12-17T10:52:54.625728+00:00", "meta": {"OBJECT_NAME": "FENGYUN 1C DEB", "OBJECT_ID": "1999-025JA", "EPOCH": "2025-12-16T07:28:43.472064", "MEAN_MOTION": 13.88090353, "ECCENTRICITY": 0.01433005, "INCLINATION": 99.5844, "RA_OF_ASC_NODE": 14.6732, "ARG_OF_PERICENTER": 93.6189, "MEAN_ANOMALY": 284.0136, "EPHEMERIS_TYPE": 0, "CLASSIFICATION_TYPE": "U", "NORAD_CAT_ID": 29928, "ELEMENT_SET_NO": 999, "REV_AT_EPOCH": 95541, "BSTAR": 0.00062804262, "MEAN_MOTION_DOT": 7.67e-06, "MEAN_MOTION_DDOT": 0}, "tle": {"line1": "1 29928U 99025JA  25350.31161426  .00000767  00000+0  62804-3 0  9996", "line2": "2 29928  99.5844  14.6732 0143300  93.6189 284.0136 13.88090353955419"}}, "geometry": {"type": "Point", "coordinates": [24.09558776821094, -40.34076744330967]}}, {"type": "Feature", "properties": {"norad_id": 29929, "name": "FENGYUN 1C DEB", "group": "fengyun-1c-debris", "lat": 46.16891678313198, "lon": -98.65532928176017, "alt_km": 925.8873894342096, "timestamp": "2025-12-17T10:52:54.625738+00:00", "meta": {"OBJECT_NAME": "FENGYUN 1C DEB", "OBJECT_ID": "1999-025JB", "EPOCH": "2025-12-17T00:27:11.522304", "MEAN_MOTION": 14.01373531, "ECCENTRICITY": 0.01314044, "INCLINATION": 98.6241, "RA_OF_ASC_NODE": 270.0296, "ARG_OF_PERICENTER": 164.1977, "MEAN_ANOMALY": 213.1444, "EPHEMERIS_TYPE": 0, "CLASSIFICATION_TYPE": "U", "NORAD_CAT_ID": 29929, "ELEMENT_SET_NO": 999, "REV_AT_EPOCH": 96016, "BSTAR": 0.00075692135, "MEAN_MOTION_DOT": 1.19e-05, "MEAN_MOTION_DDOT": 0}, "tle": {"line1": "1 29929U 99025JB  25351.01888336  .00001190  00000+0  75692-3 0  9991", "line2": "2 29929  98.6241 270.0296 0131404 164.1977 213.1444 14.01373531960166"}}, "geometry": {"type": "Point", "coordinates": [-98.65532928176017, 46.16891678313198]}}]}